[{"OBJECT_NAME":"ONEWEB-0224","OBJECT_ID":"2021-045AD","EPOCH":"2026-02-16T03:49:06.722976","MEAN_MOTION":13.1554986,"ECCENTRICITY":0.00021085,"INCLINATION":87.8965,"RA_OF_ASC_NODE":283.396,"ARG_OF_PERICENTER":107.2934,"MEAN_ANOMALY":252.8427,"EPHEMERIS_TYPE":0,"CLASSIFICATION_TYPE":"U","NORAD_CAT_ID":48794,"ELEMENT_SET_NO":999,"REV_AT_EPOCH":22836,"BSTAR":0.00016502841,"MEAN_MOTION_DOT":7.5e-7,"MEAN_MOTION_DDOT":0},{"OBJECT_NAME":"ONEWEB-0233","OBJECT_ID":"2021-045AE","EPOCH":"2026-02-16T03:55:46.386048","MEAN_MOTION":13.15549498,"ECCENTRICITY":0.00014648,"INCLINATION":87.8962,"RA_OF_ASC_NODE":283.4045,"ARG_OF_PERICENTER":97.0956,"MEAN_ANOMALY":263.0341,"EPHEMERIS_TYPE":0,"CLASSIFICATION_TYPE":"U","NORAD_CAT_ID":48795,"ELEMENT_SET_NO":999,"REV_AT_EPOCH":22838,"BSTAR":0.00040709787,"MEAN_MOTION_DOT":1.66e-6,"MEAN_MOTION_DDOT":0},{"OBJECT_NAME":"ONEWEB-0190","OBJECT_ID":"2021-045AF","EPOCH":"2026-02-16T01:48:10.426752","MEAN_MOTION":13.15548286,"ECCENTRICITY":0.00010804,"INCLINATION":87.8965,"RA_OF_ASC_NODE":283.3831,"ARG_OF_PERICENTER":112.57,"MEAN_ANOMALY":247.5545,"EPHEMERIS_TYPE":0,"CLASSIFICATION_TYPE":"U","NORAD_CAT_ID":48796,"ELEMENT_SET_NO":999,"REV_AT_EPOCH":22844,"BSTAR":-0.0005277895,"MEAN_MOTION_DOT":-1.86e-6,"MEAN_MOTION_DDOT":0},{"OBJECT_NAME":"ONEWEB-0236","OBJECT_ID":"2021-045AG","EPOCH":"2026-02-16T04:02:48.922656","MEAN_MOTION":13.15549236,"ECCENTRICITY":0.00017011,"INCLINATION":87.8963,"RA_OF_ASC_NODE":283.3761,"ARG_OF_PERICENTER":86.4369,"MEAN_ANOMALY":273.6956,"EPHEMERIS_TYPE":0,"CLASSIFICATION_TYPE":"U","NORAD_CAT_ID":48797,"ELEMENT_SET_NO":999,"REV_AT_EPOCH":22834,"BSTAR":0.00012154472,"MEAN_MOTION_DOT":5.9e-7,"MEAN_MOTION_DDOT":0},{"OBJECT_NAME":"ONEWEB-0248","OBJECT_ID":"2021-045AH","EPOCH":"2026-02-16T04:21:03.997728","MEAN_MOTION":13.15549986,"ECCENTRICITY":0.00016294,"INCLINATION":87.8976,"RA_OF_ASC_NODE":283.3444,"ARG_OF_PERICENTER":108.6134,"MEAN_ANOMALY":251.5174,"EPHEMERIS_TYPE":0,"CLASSIFICATION_TYPE":"U","NORAD_CAT_ID":48798,"ELEMENT_SET_NO":999,"REV_AT_EPOCH":22850,"BSTAR":0.0005486706,"MEAN_MOTION_DOT":2.19e-6,"MEAN_MOTION_DDOT":0},{"OBJECT_NAME":"ONEWEB-0225","OBJECT_ID":"2021-045AJ","EPOCH":"2026-02-16T04:53:00.449952","MEAN_MOTION":13.15550736,"ECCENTRICITY":0.00011608,"INCLINATION":87.8967,"RA_OF_ASC_NODE":283.3578,"ARG_OF_PERICENTER":107.8227,"MEAN_ANOMALY":252.3031,"EPHEMERIS_TYPE":0,"CLASSIFICATION_TYPE":"U","NORAD_CAT_ID":48799,"ELEMENT_SET_NO":999,"REV_AT_EPOCH":22851,"BSTAR":0.00012546625,"MEAN_MOTION_DOT":6.0e-7,"MEAN_MOTION_DDOT":0},{"OBJECT_NAME":"ONEWEB-0215","OBJECT_ID":"2021-045AK","EPOCH":"2026-02-16T02:20:09.441600","MEAN_MOTION":13.1554825,"ECCENTRICITY":0.00012689,"INCLINATION":87.8977,"RA_OF_ASC_NODE":283.349,"ARG_OF_PERICENTER":116.7943,"MEAN_ANOMALY":243.3317,"EPHEMERIS_TYPE":0,"CLASSIFICATION_TYPE":"U","NORAD_CAT_ID":48800,"ELEMENT_SET_NO":999,"REV_AT_EPOCH":22837,"BSTAR":0.0015880398,"MEAN_MOTION_DOT":6.11e-6,"MEAN_MOTION_DDOT":0},{"OBJECT_NAME":"ONEWEB-0216","OBJECT_ID":"2021-045AL","EPOCH":"2026-02-16T04:23:20.833728","MEAN_MOTION":13.15550162,"ECCENTRICITY":0.00014163,"INCLINATION":87.8966,"RA_OF_ASC_NODE":283.3544,"ARG_OF_PERICENTER":86.3087,"MEAN_ANOMALY":273.8205,"EPHEMERIS_TYPE":0,"CLASSIFICATION_TYPE":"U","NORAD_CAT_ID":48801,"ELEMENT_SET_NO":999,"REV_AT_EPOCH":22839,"BSTAR":0.00040590777,"MEAN_MOTION_DOT":1.66e-6,"MEAN_MOTION_DDOT":0},{"OBJECT_NAME":"ONEWEB-0239","OBJECT_ID":"2021-045AM","EPOCH":"2026-02-16T02:40:39.417312","MEAN_MOTION":13.15550823,"ECCENTRICITY":0.00015268,"INCLINATION":87.8966,"RA_OF_ASC_NODE":283.3822,"ARG_OF_PERICENTER":118.0495,"MEAN_ANOMALY":242.079,"EPHEMERIS_TYPE":0,"CLASSIFICATION_TYPE":"U","NORAD_CAT_ID":48802,"ELEMENT_SET_NO":999,"REV_AT_EPOCH":22842,"BSTAR":0.00048334301,"MEAN_MOTION_DOT":1.95e-6,"MEAN_MOTION_DDOT":0},{"OBJECT_NAME":"ONEWEB-0249","OBJECT_ID":"2021-060A","EPOCH":"2026-02-16T01:34:37.884864","MEAN_MOTION":13.16593577,"ECCENTRICITY":0.00016094,"INCLINATION":87.8993,"RA_OF_ASC_NODE":252.8826,"ARG_OF_PERICENTER":96.7593,"MEAN_ANOMALY":263.3721,"EPHEMERIS_TYPE":0,"CLASSIFICATION_TYPE":"U","NORAD_CAT_ID":48967,"ELEMENT_SET_NO":999,"REV_AT_EPOCH":22367,"BSTAR":-0.00015486578,"MEAN_MOTION_DOT":-4.6e-7,"MEAN_MOTION_DDOT":0},{"OBJECT_NAME":"ONEWEB-0250","OBJECT_ID":"2021-060B","EPOCH":"2026-02-16T02:32:35.352672","MEAN_MOTION":13.2582638,"ECCENTRICITY":0.00025699,"INCLINATION":87.8997,"RA_OF_ASC_NODE":251.0261,"ARG_OF_PERICENTER":104.9539,"MEAN_ANOMALY":255.1882,"EPHEMERIS_TYPE":0,"CLASSIFICATION_TYPE":"U","NORAD_CAT_ID":48968,"ELEMENT_SET_NO":999,"REV_AT_EPOCH":22417,"BSTAR":0.00024631998,"MEAN_MOTION_DOT":1.21e-6,"MEAN_MOTION_DDOT":0},{"OBJECT_NAME":"ONEWEB-0252","OBJECT_ID":"2021-060D","EPOCH":"2026-02-16T02:19:05.203200","MEAN_MOTION":13.165956,"ECCENTRICITY":0.0001602,"INCLINATION":87.8995,"RA_OF_ASC_NODE":252.8711,"ARG_OF_PERICENTER":78.4566,"MEAN_ANOMALY":281.6745,"EPHEMERIS_TYPE":0,"CLASSIFICATION_TYPE":"U","NORAD_CAT_ID":48970,"ELEMENT_SET_NO":999,"REV_AT_EPOCH":22372,"BSTAR":0.0005412633,"MEAN_MOTION_DOT":2.2e-6,"MEAN_MOTION_DDOT":0},{"OBJECT_NAME":"ONEWEB-0253","OBJECT_ID":"2021-060E","EPOCH":"2026-02-16T02:03:08.972064","MEAN_MOTION":13.16594747,"ECCENTRICITY":0.00015241,"INCLINATION":87.8996,"RA_OF_ASC_NODE":252.878,"ARG_OF_PERICENTER":99.0461,"MEAN_ANOMALY":261.0842,"EPHEMERIS_TYPE":0,"CLASSIFICATION_TYPE":"U","NORAD_CAT_ID":48971,"ELEMENT_SET_NO":999,"REV_AT_EPOCH":22365,"BSTAR":0.00024422719,"MEAN_MOTION_DOT":1.06e-6,"MEAN_MOTION_DDOT":0},{"OBJECT_NAME":"ONEWEB-0254","OBJECT_ID":"2021-060F","EPOCH":"2026-02-16T02:16:49.415232","MEAN_MOTION":13.1659516,"ECCENTRICITY":0.00015628,"INCLINATION":87.8999,"RA_OF_ASC_NODE":252.8703,"ARG_OF_PERICENTER":103.9286,"MEAN_ANOMALY":256.2019,"EPHEMERIS_TYPE":0,"CLASSIFICATION_TYPE":"U","NORAD_CAT_ID":48972,"ELEMENT_SET_NO":999,"REV_AT_EPOCH":22365,"BSTAR":0.00050329976,"MEAN_MOTION_DOT":2.05e-6,"MEAN_MOTION_DDOT":0},{"OBJECT_NAME":"ONEWEB-0255","OBJECT_ID":"2021-060G","EPOCH":"2026-02-16T01:22:07.437792","MEAN_MOTION":13.16595319,"ECCENTRICITY":0.0001571,"INCLINATION":87.8994,"RA_OF_ASC_NODE":252.888,"ARG_OF_PERICENTER":101.0408,"MEAN_ANOMALY":259.09,"EPHEMERIS_TYPE":0,"CLASSIFICATION_TYPE":"U","NORAD_CAT_ID":48973,"ELEMENT_SET_NO":999,"REV_AT_EPOCH":22372,"BSTAR":-6.8058109e-5,"MEAN_MOTION_DOT":-1.3e-7,"MEAN_MOTION_DDOT":0},{"OBJECT_NAME":"ONEWEB-0256","OBJECT_ID":"2021-060H","EPOCH":"2026-02-16T01:59:42.716256","MEAN_MOTION":13.16595734,"ECCENTRICITY":0.00015311,"INCLINATION":87.8998,"RA_OF_ASC_NODE":252.8889,"ARG_OF_PERICENTER":88.3738,"MEAN_ANOMALY":271.7569,"EPHEMERIS_TYPE":0,"CLASSIFICATION_TYPE":"U","NORAD_CAT_ID":48974,"ELEMENT_SET_NO":999,"REV_AT_EPOCH":22369,"BSTAR":0.00043943855,"MEAN_MOTION_DOT":1.81e-6,"MEAN_MOTION_DDOT":0},{"OBJECT_NAME":"ONEWEB-0257","OBJECT_ID":"2021-060J","EPOCH":"2026-02-16T02:46:27.715584","MEAN_MOTION":13.16595924,"ECCENTRICITY":0.00014551,"INCLINATION":87.9,"RA_OF_ASC_NODE":252.8668,"ARG_OF_PERICENTER":96.3895,"MEAN_ANOMALY":263.7402,"EPHEMERIS_TYPE":0,"CLASSIFICATION_TYPE":"U","NORAD_CAT_ID":48975,"ELEMENT_SET_NO":999,"REV_AT_EPOCH":22365,"BSTAR":8.2904026e-5,"MEAN_MOTION_DOT":4.5e-7,"MEAN_MOTION_DDOT":0},{"OBJECT_NAME":"ONEWEB-0258","OBJECT_ID":"2021-060K","EPOCH":"2026-02-16T02:48:45.013824","MEAN_MOTION":13.16595442,"ECCENTRICITY":0.00016864,"INCLINATION":87.8997,"RA_OF_ASC_NODE":252.8783,"ARG_OF_PERICENTER":91.7655,"MEAN_ANOMALY":268.3669,"EPHEMERIS_TYPE":0,"CLASSIFICATION_TYPE":"U","NORAD_CAT_ID":48976,"ELEMENT_SET_NO":999,"REV_AT_EPOCH":22366,"BSTAR":-7.4513527e-5,"MEAN_MOTION_DOT":-1.6e-7,"MEAN_MOTION_DDOT":0},{"OBJECT_NAME":"ONEWEB-0259","OBJECT_ID":"2021-060L","EPOCH":"2026-02-16T02:39:37.315584","MEAN_MOTION":13.16595852,"ECCENTRICITY":0.00015825,"INCLINATION":87.8998,"RA_OF_ASC_NODE":252.8781,"ARG_OF_PERICENTER":100.9132,"MEAN_ANOMALY":259.2178,"EPHEMERIS_TYPE":0,"CLASSIFICATION_TYPE":"U","NORAD_CAT_ID":48977,"ELEMENT_SET_NO":999,"REV_AT_EPOCH":22369,"BSTAR":0.0003392216,"MEAN_MOTION_DOT":1.43e-6,"MEAN_MOTION_DDOT":0},{"OBJECT_NAME":"ONEWEB-0260","OBJECT_ID":"2021-060M","EPOCH":"2026-02-16T02:27:04.172832","MEAN_MOTION":13.1659403,"ECCENTRICITY":0.00013596,"INCLINATION":87.8986,"RA_OF_ASC_NODE":252.8858,"ARG_OF_PERICENTER":84.5701,"MEAN_ANOMALY":275.5585,"EPHEMERIS_TYPE":0,"CLASSIFICATION_TYPE":"U","NORAD_CAT_ID":48978,"ELEMENT_SET_NO":999,"REV_AT_EPOCH":22367,"BSTAR":-0.00044404953,"MEAN_MOTION_DOT":-1.57e-6,"MEAN_MOTION_DDOT":0},{"OBJECT_NAME":"ONEWEB-0261","OBJECT_ID":"2021-060N","EPOCH":"2026-02-16T01:43:45.679008","MEAN_MOTION":13.16595646,"ECCENTRICITY":0.00012881,"INCLINATION":87.8985,"RA_OF_ASC_NODE":252.8938,"ARG_OF_PERICENTER":101.8348,"MEAN_ANOMALY":258.2927,"EPHEMERIS_TYPE":0,"CLASSIFICATION_TYPE":"U","NORAD_CAT_ID":48979,"ELEMENT_SET_NO":999,"REV_AT_EPOCH":22372,"BSTAR":0.00023154773,"MEAN_MOTION_DOT":1.01e-6,"MEAN_MOTION_DDOT":0},{"OBJECT_NAME":"ONEWEB-0262","OBJECT_ID":"2021-060P","EPOCH":"2026-02-16T03:04:42.445056","MEAN_MOTION":13.16595106,"ECCENTRICITY":0.0001762,"INCLINATION":87.9,"RA_OF_ASC_NODE":252.8626,"ARG_OF_PERICENTER":101.8148,"MEAN_ANOMALY":258.3181,"EPHEMERIS_TYPE":0,"CLASSIFICATION_TYPE":"U","NORAD_CAT_ID":48980,"ELEMENT_SET_NO":999,"REV_AT_EPOCH":22369,"BSTAR":0.00011878738,"MEAN_MOTION_DOT":5.8e-7,"MEAN_MOTION_DDOT":0},{"OBJECT_NAME":"ONEWEB-0263","OBJECT_ID":"2021-060Q","EPOCH":"2026-02-16T02:00:51.446592","MEAN_MOTION":13.16594765,"ECCENTRICITY":0.00014346,"INCLINATION":87.8998,"RA_OF_ASC_NODE":252.8829,"ARG_OF_PERICENTER":106.3423,"MEAN_ANOMALY":253.7865,"EPHEMERIS_TYPE":0,"CLASSIFICATION_TYPE":"U","NORAD_CAT_ID":48981,"ELEMENT_SET_NO":999,"REV_AT_EPOCH":22365,"BSTAR":0.00037046966,"MEAN_MOTION_DOT":1.54e-6,"MEAN_MOTION_DDOT":0}]
